GLOBALSTAR M094         
1 39074U 13005C   25356.23891156 -.00000104  00000+0 -31216-5 0  9992
2 39074  51.9981 329.5556 0000420  22.2753 337.8132 12.62265391596127
GLOBALSTAR M096         
1 39075U 13005D   25356.33112794 -.00000094  00000+0  57083-4 0  9994
2 39075  52.0090  17.9343 0000055  68.2015 291.8858 12.62269528595059
GLOBALSTAR M078         
1 39076U 13005E   25356.54266464 -.00000109  00000+0 -28593-4 0  9994
2 39076  51.9872 101.5460 0000774 183.8200 176.2660 12.62272395593707
GLOBALSTAR M095         
1 39077U 13005F   25356.56894532 -.00000110  00000+0 -34989-4 0  9998
2 39077  52.0078  98.8189 0000400 142.1491 217.9404 12.62267141593566
GLOBALSTAR M087         
1 52888U 22064A   25356.81956772 -.00000073  00000+0  16996-3 0  9995
2 52888  51.9986 239.3968 0000814  56.8512 303.2433 12.62261791168865
